[{"OBJECT_NAME":"HULIANWANG DIGUI-49","OBJECT_ID":"2025-168A","EPOCH":"2026-03-14T21:15:51.242400","MEAN_MOTION":13.29340233,"ECCENTRICITY":0.00074972,"INCLINATION":50.0034,"RA_OF_ASC_NODE":304.1876,"ARG_OF_PERICENTER":179.807,"MEAN_ANOMALY":180.2807,"EPHEMERIS_TYPE":0,"CLASSIFICATION_TYPE":"U","NORAD_CAT_ID":65106,"ELEMENT_SET_NO":999,"REV_AT_EPOCH":3014,"BSTAR":0.00018708504,"MEAN_MOTION_DOT":-3.7e-7,"MEAN_MOTION_DDOT":0},{"OBJECT_NAME":"HULIANWANG DIGUI-50","OBJECT_ID":"2025-168B","EPOCH":"2026-03-14T22:52:00.174720","MEAN_MOTION":13.29340785,"ECCENTRICITY":0.00085059,"INCLINATION":50.0004,"RA_OF_ASC_NODE":303.8151,"ARG_OF_PERICENTER":166.3688,"MEAN_ANOMALY":193.7415,"EPHEMERIS_TYPE":0,"CLASSIFICATION_TYPE":"U","NORAD_CAT_ID":65107,"ELEMENT_SET_NO":999,"REV_AT_EPOCH":3015,"BSTAR":0.0001563089,"MEAN_MOTION_DOT":-5.1e-7,"MEAN_MOTION_DDOT":0},{"OBJECT_NAME":"HULIANWANG DIGUI-51","OBJECT_ID":"2025-168C","EPOCH":"2026-03-14T22:39:57.251232","MEAN_MOTION":13.29341137,"ECCENTRICITY":0.00098532,"INCLINATION":50.0041,"RA_OF_ASC_NODE":303.8439,"ARG_OF_PERICENTER":166.3793,"MEAN_ANOMALY":193.7347,"EPHEMERIS_TYPE":0,"CLASSIFICATION_TYPE":"U","NORAD_CAT_ID":65108,"ELEMENT_SET_NO":999,"REV_AT_EPOCH":3015,"BSTAR":0.00017819151,"MEAN_MOTION_DOT":-4.1e-7,"MEAN_MOTION_DDOT":0},{"OBJECT_NAME":"HULIANWANG DIGUI-52","OBJECT_ID":"2025-168D","EPOCH":"2026-03-14T22:28:06.131712","MEAN_MOTION":13.29339686,"ECCENTRICITY":0.00097125,"INCLINATION":50.0034,"RA_OF_ASC_NODE":303.783,"ARG_OF_PERICENTER":179.1716,"MEAN_ANOMALY":180.9173,"EPHEMERIS_TYPE":0,"CLASSIFICATION_TYPE":"U","NORAD_CAT_ID":65109,"ELEMENT_SET_NO":999,"REV_AT_EPOCH":3015,"BSTAR":0.00017012883,"MEAN_MOTION_DOT":-4.5e-7,"MEAN_MOTION_DDOT":0},{"OBJECT_NAME":"HULIANWANG DIGUI-53","OBJECT_ID":"2025-168E","EPOCH":"2026-03-14T22:16:04.499904","MEAN_MOTION":13.29339598,"ECCENTRICITY":0.00085337,"INCLINATION":50.0042,"RA_OF_ASC_NODE":303.7619,"ARG_OF_PERICENTER":168.8677,"MEAN_ANOMALY":191.2385,"EPHEMERIS_TYPE":0,"CLASSIFICATION_TYPE":"U","NORAD_CAT_ID":65110,"ELEMENT_SET_NO":999,"REV_AT_EPOCH":3015,"BSTAR":0.00017959271,"MEAN_MOTION_DOT":-4.1e-7,"MEAN_MOTION_DDOT":0},{"OBJECT_NAME":"HULIANWANG DIGUI-54","OBJECT_ID":"2025-168F","EPOCH":"2026-03-14T21:40:16.418784","MEAN_MOTION":13.29336952,"ECCENTRICITY":0.00101021,"INCLINATION":49.9993,"RA_OF_ASC_NODE":303.5383,"ARG_OF_PERICENTER":174.2421,"MEAN_ANOMALY":185.8569,"EPHEMERIS_TYPE":0,"CLASSIFICATION_TYPE":"U","NORAD_CAT_ID":65111,"ELEMENT_SET_NO":999,"REV_AT_EPOCH":3015,"BSTAR":0.00018367128,"MEAN_MOTION_DOT":-3.9e-7,"MEAN_MOTION_DDOT":0},{"OBJECT_NAME":"HULIANWANG DIGUI-55","OBJECT_ID":"2025-168G","EPOCH":"2026-03-14T22:03:55.443744","MEAN_MOTION":13.29340321,"ECCENTRICITY":0.00113905,"INCLINATION":49.9998,"RA_OF_ASC_NODE":303.6324,"ARG_OF_PERICENTER":170.2368,"MEAN_ANOMALY":189.8727,"EPHEMERIS_TYPE":0,"CLASSIFICATION_TYPE":"U","NORAD_CAT_ID":65112,"ELEMENT_SET_NO":999,"REV_AT_EPOCH":3015,"BSTAR":0.00017608476,"MEAN_MOTION_DOT":-4.2e-7,"MEAN_MOTION_DDOT":0},{"OBJECT_NAME":"HULIANWANG DIGUI-56","OBJECT_ID":"2025-168H","EPOCH":"2026-03-14T21:51:55.653984","MEAN_MOTION":13.29339777,"ECCENTRICITY":0.00110311,"INCLINATION":49.9991,"RA_OF_ASC_NODE":303.5729,"ARG_OF_PERICENTER":191.9818,"MEAN_ANOMALY":168.0793,"EPHEMERIS_TYPE":0,"CLASSIFICATION_TYPE":"U","NORAD_CAT_ID":65113,"ELEMENT_SET_NO":999,"REV_AT_EPOCH":3015,"BSTAR":0.00019293428,"MEAN_MOTION_DOT":-3.4e-7,"MEAN_MOTION_DDOT":0},{"OBJECT_NAME":"HULIANWANG DIGUI-57","OBJECT_ID":"2025-168J","EPOCH":"2026-03-14T21:28:17.112864","MEAN_MOTION":13.29336751,"ECCENTRICITY":0.00088184,"INCLINATION":50.0018,"RA_OF_ASC_NODE":303.5444,"ARG_OF_PERICENTER":182.2932,"MEAN_ANOMALY":177.7901,"EPHEMERIS_TYPE":0,"CLASSIFICATION_TYPE":"U","NORAD_CAT_ID":65114,"ELEMENT_SET_NO":999,"REV_AT_EPOCH":3016,"BSTAR":0.00017844233,"MEAN_MOTION_DOT":-4.1e-7,"MEAN_MOTION_DDOT":0},{"OBJECT_NAME":"HULIANWANG DIGUI-58","OBJECT_ID":"2025-174A","EPOCH":"2026-03-14T21:45:37.609920","MEAN_MOTION":13.24421908,"ECCENTRICITY":0.00013713,"INCLINATION":86.4912,"RA_OF_ASC_NODE":283.8678,"ARG_OF_PERICENTER":95.5372,"MEAN_ANOMALY":264.5918,"EPHEMERIS_TYPE":0,"CLASSIFICATION_TYPE":"U","NORAD_CAT_ID":65164,"ELEMENT_SET_NO":999,"REV_AT_EPOCH":2831,"BSTAR":0.00019627738,"MEAN_MOTION_DOT":9.9e-7,"MEAN_MOTION_DDOT":0},{"OBJECT_NAME":"HULIANWANG DIGUI-59","OBJECT_ID":"2025-174B","EPOCH":"2026-03-14T21:56:29.863392","MEAN_MOTION":13.24422156,"ECCENTRICITY":0.00013443,"INCLINATION":86.4873,"RA_OF_ASC_NODE":283.7912,"ARG_OF_PERICENTER":95.6182,"MEAN_ANOMALY":264.5105,"EPHEMERIS_TYPE":0,"CLASSIFICATION_TYPE":"U","NORAD_CAT_ID":65165,"ELEMENT_SET_NO":999,"REV_AT_EPOCH":2831,"BSTAR":0.00022672743,"MEAN_MOTION_DOT":1.12e-6,"MEAN_MOTION_DDOT":0},{"OBJECT_NAME":"HULIANWANG DIGUI-60","OBJECT_ID":"2025-174C","EPOCH":"2026-03-14T22:07:20.163360","MEAN_MOTION":13.24422283,"ECCENTRICITY":0.00013503,"INCLINATION":86.4905,"RA_OF_ASC_NODE":283.8611,"ARG_OF_PERICENTER":97.5665,"MEAN_ANOMALY":262.5622,"EPHEMERIS_TYPE":0,"CLASSIFICATION_TYPE":"U","NORAD_CAT_ID":65166,"ELEMENT_SET_NO":999,"REV_AT_EPOCH":2831,"BSTAR":0.00017729405,"MEAN_MOTION_DOT":9.1e-7,"MEAN_MOTION_DDOT":0},{"OBJECT_NAME":"HULIANWANG DIGUI-61","OBJECT_ID":"2025-174D","EPOCH":"2026-03-14T22:18:18.724032","MEAN_MOTION":13.24420903,"ECCENTRICITY":0.00013003,"INCLINATION":86.4914,"RA_OF_ASC_NODE":283.882,"ARG_OF_PERICENTER":97.8534,"MEAN_ANOMALY":262.2748,"EPHEMERIS_TYPE":0,"CLASSIFICATION_TYPE":"U","NORAD_CAT_ID":65167,"ELEMENT_SET_NO":999,"REV_AT_EPOCH":2831,"BSTAR":0.00017922965,"MEAN_MOTION_DOT":9.2e-7,"MEAN_MOTION_DDOT":0},{"OBJECT_NAME":"HULIANWANG DIGUI-62","OBJECT_ID":"2025-174E","EPOCH":"2026-03-14T22:29:06.567648","MEAN_MOTION":13.24422255,"ECCENTRICITY":0.00013336,"INCLINATION":86.4855,"RA_OF_ASC_NODE":283.7633,"ARG_OF_PERICENTER":99.947,"MEAN_ANOMALY":260.1815,"EPHEMERIS_TYPE":0,"CLASSIFICATION_TYPE":"U","NORAD_CAT_ID":65168,"ELEMENT_SET_NO":999,"REV_AT_EPOCH":2831,"BSTAR":0.00014917411,"MEAN_MOTION_DOT":7.9e-7,"MEAN_MOTION_DDOT":0},{"OBJECT_NAME":"HULIANWANG DIGUI-63","OBJECT_ID":"2025-174F","EPOCH":"2026-03-14T22:39:57.808512","MEAN_MOTION":13.24422597,"ECCENTRICITY":0.00013203,"INCLINATION":86.4908,"RA_OF_ASC_NODE":283.8751,"ARG_OF_PERICENTER":97.6103,"MEAN_ANOMALY":262.5181,"EPHEMERIS_TYPE":0,"CLASSIFICATION_TYPE":"U","NORAD_CAT_ID":65169,"ELEMENT_SET_NO":999,"REV_AT_EPOCH":2831,"BSTAR":0.00012668334,"MEAN_MOTION_DOT":6.9e-7,"MEAN_MOTION_DDOT":0},{"OBJECT_NAME":"HULIANWANG DIGUI-64","OBJECT_ID":"2025-174G","EPOCH":"2026-03-14T22:50:50.678880","MEAN_MOTION":13.24422602,"ECCENTRICITY":0.00013415,"INCLINATION":86.4866,"RA_OF_ASC_NODE":283.7941,"ARG_OF_PERICENTER":99.6264,"MEAN_ANOMALY":260.5022,"EPHEMERIS_TYPE":0,"CLASSIFICATION_TYPE":"U","NORAD_CAT_ID":65170,"ELEMENT_SET_NO":999,"REV_AT_EPOCH":2831,"BSTAR":0.00011933306,"MEAN_MOTION_DOT":6.6e-7,"MEAN_MOTION_DDOT":0}]
