HULIANWANG DIGUI-49     
1 65106U 25168A   26073.88600975 -.00000037  00000+0  18709-3 0  9999
2 65106  50.0034 304.1876 0007497 179.8070 180.2807 13.29340233 30144
HULIANWANG DIGUI-50     
1 65107U 25168B   26073.95277980 -.00000051  00000+0  15631-3 0  9991
2 65107  50.0004 303.8151 0008505 166.3688 193.7415 13.29340785 30158
HULIANWANG DIGUI-51     
1 65108U 25168C   26073.94441263 -.00000041  00000+0  17819-3 0  9997
2 65108  50.0041 303.8439 0009853 166.3793 193.7347 13.29341137 30159
HULIANWANG DIGUI-52     
1 65109U 25168D   26073.93618208 -.00000045  00000+0  17013-3 0  9992
2 65109  50.0034 303.7830 0009712 179.1716 180.9173 13.29339686 30158
HULIANWANG DIGUI-53     
1 65110U 25168E   26073.92782986 -.00000041  00000+0  17959-3 0  9993
2 65110  50.0042 303.7619 0008533 168.8677 191.2385 13.29339598 30157
HULIANWANG DIGUI-54     
1 65111U 25168F   26073.90296781 -.00000039  00000+0  18367-3 0  9996
2 65111  49.9993 303.5383 0010102 174.2421 185.8569 13.29336952 30153
HULIANWANG DIGUI-55     
1 65112U 25168G   26073.91939171 -.00000042  00000+0  17608-3 0  9996
2 65112  49.9998 303.6324 0011390 170.2368 189.8727 13.29340321 30156
HULIANWANG DIGUI-56     
1 65113U 25168H   26073.91106081 -.00000034  00000+0  19293-3 0  9996
2 65113  49.9991 303.5729 0011031 191.9818 168.0793 13.29339777 30155
HULIANWANG DIGUI-57     
1 65114U 25168J   26073.89464251 -.00000041  00000+0  17844-3 0  9998
2 65114  50.0018 303.5444 0008818 182.2932 177.7901 13.29336751 30160
HULIANWANG DIGUI-58     
1 65164U 25174A   26073.90668530  .00000099  00000+0  19628-3 0  9992
2 65164  86.4912 283.8678 0001371  95.5372 264.5918 13.24421908 28312
HULIANWANG DIGUI-59     
1 65165U 25174B   26073.91423453  .00000112  00000+0  22673-3 0  9997
2 65165  86.4873 283.7912 0001344  95.6182 264.5105 13.24422156 28313
HULIANWANG DIGUI-60     
1 65166U 25174C   26073.92176115  .00000091  00000+0  17729-3 0  9991
2 65166  86.4905 283.8611 0001350  97.5665 262.5622 13.24422283 28314
HULIANWANG DIGUI-61     
1 65167U 25174D   26073.92938338  .00000092  00000+0  17923-3 0  9992
2 65167  86.4914 283.8820 0001300  97.8534 262.2748 13.24420903 28313
HULIANWANG DIGUI-62     
1 65168U 25174E   26073.93688157  .00000079  00000+0  14917-3 0  9990
2 65168  86.4855 283.7633 0001333  99.9470 260.1815 13.24422255 28311
HULIANWANG DIGUI-63     
1 65169U 25174F   26073.94441908  .00000069  00000+0  12668-3 0  9993
2 65169  86.4908 283.8751 0001320  97.6103 262.5181 13.24422597 28318
HULIANWANG DIGUI-64     
1 65170U 25174G   26073.95197545  .00000066  00000+0  11933-3 0  9992
2 65170  86.4866 283.7941 0001341  99.6264 260.5022 13.24422602 28315
